{
  "type": "Feature",
  "properties": {
    "candidate_id": "F_03"
  },
  "geometry": {
    "type": "Polygon",
    "coordinates": [
      [
        [
          13.39341016522296,
          52.5403661784782
        ],
        [
          13.44058983477704,
          52.5403661784782
        ],
        [
          13.44058983477704,
          52.56912303015489
        ],
        [
          13.39341016522296,
          52.56912303015489
        ],
        [
          13.39341016522296,
          52.5403661784782
        ]
      ]
    ]
  }
}