{
  "type": "Feature",
  "properties": {
    "candidate_id": "D_02"
  },
  "geometry": {
    "type": "Polygon",
    "coordinates": [
      [
        [
          12.339342627167506,
          51.325318589593635
        ],
        [
          12.385264334801226,
          51.325318589593635
        ],
        [
          12.385264334801226,
          51.354081410406366
        ],
        [
          12.339342627167506,
          51.354081410406366
        ],
        [
          12.339342627167506,
          51.325318589593635
        ]
      ]
    ]
  }
}