{
  "type": "Feature",
  "properties": {
    "candidate_id": "D_04"
  },
  "geometry": {
    "type": "Polygon",
    "coordinates": [
      [
        [
          12.350142515168486,
          51.31857396862458
        ],
        [
          12.396057484831516,
          51.31857396862458
        ],
        [
          12.396057484831516,
          51.347336822742335
        ],
        [
          12.350142515168486,
          51.347336822742335
        ],
        [
          12.350142515168486,
          51.31857396862458
        ]
      ]
    ]
  }
}