{
  "type": "Feature",
  "properties": {
    "candidate_id": "F_02"
  },
  "geometry": {
    "type": "Polygon",
    "coordinates": [
      [
        [
          13.382322444165343,
          52.53362155768402
        ],
        [
          13.429494881015898,
          52.53362155768402
        ],
        [
          13.429494881015898,
          52.56237844231598
        ],
        [
          13.382322444165343,
          52.56237844231598
        ],
        [
          13.382322444165343,
          52.53362155768402
        ]
      ]
    ]
  }
}