{
  "type": "Feature",
  "properties": {
    "candidate_id": "E_04"
  },
  "geometry": {
    "type": "Polygon",
    "coordinates": [
      [
        [
          2.1408720427759604,
          41.36784893403442
        ],
        [
          2.17912795722404,
          41.36784893403442
        ],
        [
          2.17912795722404,
          41.3966618573325
        ],
        [
          2.1408720427759604,
          41.3966618573325
        ],
        [
          2.1408720427759604,
          41.36784893403442
        ]
      ]
    ]
  }
}