{
  "type": "Feature",
  "properties": {
    "candidate_id": "D_00"
  },
  "geometry": {
    "type": "Polygon",
    "coordinates": [
      [
        [
          12.35013914618314,
          51.325318589593635
        ],
        [
          12.396060853816861,
          51.325318589593635
        ],
        [
          12.396060853816861,
          51.354081410406366
        ],
        [
          12.35013914618314,
          51.354081410406366
        ],
        [
          12.35013914618314,
          51.325318589593635
        ]
      ]
    ]
  }
}