{
  "type": "Feature",
  "properties": {
    "candidate_id": "E_01"
  },
  "geometry": {
    "type": "Polygon",
    "coordinates": [
      [
        [
          2.149860018793453,
          41.37459355529343
        ],
        [
          2.188119886648844,
          41.37459355529343
        ],
        [
          2.188119886648844,
          41.403406444706576
        ],
        [
          2.149860018793453,
          41.403406444706576
        ],
        [
          2.149860018793453,
          41.37459355529343
        ]
      ]
    ]
  }
}