{
  "type": "Feature",
  "properties": {
    "candidate_id": "F_04"
  },
  "geometry": {
    "type": "Polygon",
    "coordinates": [
      [
        [
          13.393417396487807,
          52.52687693688879
        ],
        [
          13.440582603512192,
          52.52687693688879
        ],
        [
          13.440582603512192,
          52.555633854478124
        ],
        [
          13.393417396487807,
          52.555633854478124
        ],
        [
          13.393417396487807,
          52.52687693688879
        ]
      ]
    ]
  }
}