{
  "type": "Feature",
  "properties": {
    "candidate_id": "D_03"
  },
  "geometry": {
    "type": "Polygon",
    "coordinates": [
      [
        [
          12.350135775887534,
          51.33206321056181
        ],
        [
          12.396064224112468,
          51.33206321056181
        ],
        [
          12.396064224112468,
          51.36082599807128
        ],
        [
          12.350135775887534,
          51.36082599807128
        ],
        [
          12.350135775887534,
          51.33206321056181
        ]
      ]
    ]
  }
}