{
  "type": "Feature",
  "properties": {
    "candidate_id": "E_03"
  },
  "geometry": {
    "type": "Polygon",
    "coordinates": [
      [
        [
          2.140868088693596,
          41.381338176552944
        ],
        [
          2.1791319113064045,
          41.381338176552944
        ],
        [
          2.1791319113064045,
          41.41015103208015
        ],
        [
          2.140868088693596,
          41.41015103208015
        ],
        [
          2.140868088693596,
          41.381338176552944
        ]
      ]
    ]
  }
}