{
  "type": "Feature",
  "properties": {
    "candidate_id": "F_00"
  },
  "geometry": {
    "type": "Polygon",
    "coordinates": [
      [
        [
          13.393413781574722,
          52.53362155768402
        ],
        [
          13.440586218425278,
          52.53362155768402
        ],
        [
          13.440586218425278,
          52.56237844231598
        ],
        [
          13.393413781574722,
          52.56237844231598
        ],
        [
          13.393413781574722,
          52.53362155768402
        ]
      ]
    ]
  }
}