{
  "type": "Feature",
  "properties": {
    "candidate_id": "F_01"
  },
  "geometry": {
    "type": "Polygon",
    "coordinates": [
      [
        [
          13.404505118984101,
          52.53362155768402
        ],
        [
          13.451677555834657,
          52.53362155768402
        ],
        [
          13.451677555834657,
          52.56237844231598
        ],
        [
          13.404505118984101,
          52.56237844231598
        ],
        [
          13.404505118984101,
          52.53362155768402
        ]
      ]
    ]
  }
}