{
  "type": "Feature",
  "properties": {
    "candidate_id": "E_02"
  },
  "geometry": {
    "type": "Polygon",
    "coordinates": [
      [
        [
          2.1318801133511562,
          41.37459355529343
        ],
        [
          2.1701399812065474,
          41.37459355529343
        ],
        [
          2.1701399812065474,
          41.403406444706576
        ],
        [
          2.1318801133511562,
          41.403406444706576
        ],
        [
          2.1318801133511562,
          41.37459355529343
        ]
      ]
    ]
  }
}