{
  "type": "Feature",
  "properties": {
    "candidate_id": "E_00"
  },
  "geometry": {
    "type": "Polygon",
    "coordinates": [
      [
        [
          2.1408700660723046,
          41.37459355529343
        ],
        [
          2.1791299339276957,
          41.37459355529343
        ],
        [
          2.1791299339276957,
          41.403406444706576
        ],
        [
          2.1408700660723046,
          41.403406444706576
        ],
        [
          2.1408700660723046,
          41.37459355529343
        ]
      ]
    ]
  }
}