{
  "type": "Feature",
  "properties": {
    "candidate_id": "D_01"
  },
  "geometry": {
    "type": "Polygon",
    "coordinates": [
      [
        [
          12.360935665198776,
          51.325318589593635
        ],
        [
          12.406857372832496,
          51.325318589593635
        ],
        [
          12.406857372832496,
          51.354081410406366
        ],
        [
          12.360935665198776,
          51.354081410406366
        ],
        [
          12.360935665198776,
          51.325318589593635
        ]
      ]
    ]
  }
}